start=new Date('2023-05-09T00:00:00.000Z').valueOf();
sats=[{"MEAN_MOTION_DDOT":"0.0000000000000","OBJECT_NAME":"STARLINK-4360","RA_OF_ASC_NODE":"250.5740","ECCENTRICITY":"0.00014220","BSTAR":"0.00002501900000","MEAN_MOTION":"15.01262580","NORAD_CAT_ID":"53482","ARG_OF_PERICENTER":"123.6361","SITE":"AFWTR","OBJECT_ID":"2022-099T","REV_AT_EPOCH":"4058","PERIAPSIS":"562.017","TLE_LINE1":"1 53482U 22099T   23128.92599365  .00000262  00000-0  25019-4 0  9999","GP_ID":"231474555","REF_FRAME":"TEME","PERIOD":"95.919","RCS_SIZE":"LARGE","APOAPSIS":"563.991","DECAY_DATE":null,"MEAN_MOTION_DOT":"0.00000262","FILE":"3904305","MEAN_ELEMENT_THEORY":"SGP4","LAUNCH_DATE":"2022-08-12","MEAN_ANOMALY":"236.4999","ELEMENT_SET_NO":"999","TIME_SYSTEM":"UTC","TLE_LINE2":"2 53482  97.6545 250.5740 0001422 123.6361 236.4999 15.01262580 40583","OBJECT_TYPE":"PAYLOAD","EPOCH":"2023-05-08T22:13:25.851360","INCLINATION":"97.6545","COUNTRY_CODE":"US","CLASSIFICATION_TYPE":"U","SEMIMAJOR_AXIS":"6941.139","CENTER_NAME":"EARTH","EPHEMERIS_TYPE":"0"},{"OBJECT_TYPE":"PAYLOAD","INCLINATION":"97.6542","EPOCH":"2023-05-08T22:05:25.999584","COUNTRY_CODE":"US","CLASSIFICATION_TYPE":"U","SEMIMAJOR_AXIS":"6941.150","CENTER_NAME":"EARTH","EPHEMERIS_TYPE":"0","MEAN_MOTION_DOT":"0.00001151","FILE":"3904305","LAUNCH_DATE":"2022-08-12","ELEMENT_SET_NO":"999","TIME_SYSTEM":"UTC","MEAN_ELEMENT_THEORY":"SGP4","MEAN_ANOMALY":"184.6331","TLE_LINE2":"2 53483  97.6542 250.5689 0000406 175.4897 184.6331 15.01258875 40589","MEAN_MOTION":"15.01258875","NORAD_CAT_ID":"53483","SITE":"AFWTR","ARG_OF_PERICENTER":"175.4897","OBJECT_ID":"2022-099U","REV_AT_EPOCH":"4058","TLE_LINE1":"1 53483U 22099U   23128.92043981  .00001151  00000-0  94152-4 0  9990","GP_ID":"231474800","PERIAPSIS":"562.734","REF_FRAME":"TEME","RCS_SIZE":"LARGE","PERIOD":"95.919","APOAPSIS":"563.297","DECAY_DATE":null,"MEAN_MOTION_DDOT":"0.0000000000000","OBJECT_NAME":"STARLINK-4401","RA_OF_ASC_NODE":"250.5689","ECCENTRICITY":"0.00004060","BSTAR":"0.00009415200000"},{"OBJECT_ID":"2022-099V","REV_AT_EPOCH":"4058","MEAN_MOTION":"15.01251008","NORAD_CAT_ID":"53484","SITE":"AFWTR","ARG_OF_PERICENTER":"107.0469","APOAPSIS":"563.952","DECAY_DATE":null,"PERIAPSIS":"562.127","TLE_LINE1":"1 53484U 22099V   23128.92389969  .00002233  00000-0  17839-3 0  9998","GP_ID":"231475556","REF_FRAME":"TEME","RCS_SIZE":"LARGE","PERIOD":"95.920","MEAN_MOTION_DDOT":"0.0000000000000","ECCENTRICITY":"0.00013150","BSTAR":"0.00017839000000","RA_OF_ASC_NODE":"250.5720","OBJECT_NAME":"STARLINK-4426","INCLINATION":"97.6541","EPOCH":"2023-05-08T22:10:24.933216","OBJECT_TYPE":"PAYLOAD","CENTER_NAME":"EARTH","EPHEMERIS_TYPE":"0","COUNTRY_CODE":"US","CLASSIFICATION_TYPE":"U","SEMIMAJOR_AXIS":"6941.175","MEAN_MOTION_DOT":"0.00002233","FILE":"3904305","TLE_LINE2":"2 53484  97.6541 250.5720 0001315 107.0469 253.0899 15.01251008 40582","LAUNCH_DATE":"2022-08-12","TIME_SYSTEM":"UTC","MEAN_ELEMENT_THEORY":"SGP4","MEAN_ANOMALY":"253.0899","ELEMENT_SET_NO":"999"},{"TLE_LINE2":"2 53485  97.6542 250.5607 0000513 194.4761 165.6449 15.01260678 40584","LAUNCH_DATE":"2022-08-12","TIME_SYSTEM":"UTC","MEAN_ANOMALY":"165.6449","MEAN_ELEMENT_THEORY":"SGP4","ELEMENT_SET_NO":"999","MEAN_MOTION_DOT":"0.00000287","FILE":"3904305","CENTER_NAME":"EARTH","EPHEMERIS_TYPE":"0","COUNTRY_CODE":"US","CLASSIFICATION_TYPE":"U","SEMIMAJOR_AXIS":"6941.145","INCLINATION":"97.6542","EPOCH":"2023-05-08T22:02:24.480096","OBJECT_TYPE":"PAYLOAD","ECCENTRICITY":"0.00005130","BSTAR":"0.00002692000000","RA_OF_ASC_NODE":"250.5607","OBJECT_NAME":"STARLINK-4430","MEAN_MOTION_DDOT":"0.0000000000000","APOAPSIS":"563.366","DECAY_DATE":null,"TLE_LINE1":"1 53485U 22099W   23128.91833889  .00000287  00000-0  26920-4 0  9992","PERIAPSIS":"562.654","GP_ID":"231476304","REF_FRAME":"TEME","RCS_SIZE":"LARGE","PERIOD":"95.919","OBJECT_ID":"2022-099W","REV_AT_EPOCH":"4058","MEAN_MOTION":"15.01260678","NORAD_CAT_ID":"53485","SITE":"AFWTR","ARG_OF_PERICENTER":"194.4761"},{"MEAN_MOTION_DDOT":"0.0000000000000","BSTAR":"0.00006670300000","ECCENTRICITY":"0.00008390","OBJECT_NAME":"STARLINK-4431","RA_OF_ASC_NODE":"250.5698","REV_AT_EPOCH":"4058","OBJECT_ID":"2022-099X","ARG_OF_PERICENTER":"122.0677","SITE":"AFWTR","NORAD_CAT_ID":"53486","MEAN_MOTION":"15.01263245","DECAY_DATE":null,"APOAPSIS":"563.584","RCS_SIZE":"LARGE","PERIOD":"95.919","REF_FRAME":"TEME","TLE_LINE1":"1 53486U 22099X   23128.92204521  .00000798  00000-0  66703-4 0  9999","GP_ID":"231475056","PERIAPSIS":"562.419","FILE":"3904305","MEAN_MOTION_DOT":"0.00000798","TLE_LINE2":"2 53486  97.6544 250.5698 0000839 122.0677 238.0628 15.01263245 40588","LAUNCH_DATE":"2022-08-12","TIME_SYSTEM":"UTC","MEAN_ANOMALY":"238.0628","ELEMENT_SET_NO":"999","MEAN_ELEMENT_THEORY":"SGP4","EPOCH":"2023-05-08T22:07:44.706144","INCLINATION":"97.6544","OBJECT_TYPE":"PAYLOAD","EPHEMERIS_TYPE":"0","CENTER_NAME":"EARTH","SEMIMAJOR_AXIS":"6941.137","CLASSIFICATION_TYPE":"U","COUNTRY_CODE":"US"},{"MEAN_MOTION_DDOT":"0.0000000000000","RA_OF_ASC_NODE":"250.5497","OBJECT_NAME":"STARLINK-4432","ECCENTRICITY":"0.00012230","BSTAR":"-0.00004259200000","MEAN_MOTION":"15.01261158","NORAD_CAT_ID":"53487","ARG_OF_PERICENTER":"224.9122","SITE":"AFWTR","OBJECT_ID":"2022-099Y","REV_AT_EPOCH":"4058","TLE_LINE1":"1 53487U 22099Y   23128.91463701 -.00000606  00000-0 -42592-4 0  9996","GP_ID":"231475300","PERIAPSIS":"562.159","REF_FRAME":"TEME","PERIOD":"95.919","RCS_SIZE":"LARGE","APOAPSIS":"563.857","DECAY_DATE":null,"MEAN_MOTION_DOT":"-0.00000606","FILE":"3904305","LAUNCH_DATE":"2022-08-12","ELEMENT_SET_NO":"999","TIME_SYSTEM":"UTC","MEAN_ELEMENT_THEORY":"SGP4","MEAN_ANOMALY":"135.2004","TLE_LINE2":"2 53487  97.6532 250.5497 0001223 224.9122 135.2004 15.01261158 40585","OBJECT_TYPE":"PAYLOAD","EPOCH":"2023-05-08T21:57:04.637664","INCLINATION":"97.6532","COUNTRY_CODE":"US","CLASSIFICATION_TYPE":"U","SEMIMAJOR_AXIS":"6941.143","CENTER_NAME":"EARTH","EPHEMERIS_TYPE":"0"},{"MEAN_ANOMALY":"223.4744","LAUNCH_DATE":"2022-08-12","TIME_SYSTEM":"UTC","ELEMENT_SET_NO":"999","MEAN_ELEMENT_THEORY":"SGP4","TLE_LINE2":"2 53488  97.6545 250.5676 0000678 136.6534 223.4744 15.01259079 40588","FILE":"3904305","MEAN_MOTION_DOT":"0.00001319","SEMIMAJOR_AXIS":"6941.150","COUNTRY_CODE":"US","CLASSIFICATION_TYPE":"U","EPHEMERIS_TYPE":"0","CENTER_NAME":"EARTH","OBJECT_TYPE":"PAYLOAD","INCLINATION":"97.6545","EPOCH":"2023-05-08T22:05:04.827264","RA_OF_ASC_NODE":"250.5676","OBJECT_NAME":"STARLINK-4421","BSTAR":"0.00010723000000","ECCENTRICITY":"0.00006780","MEAN_MOTION_DDOT":"0.0000000000000","REF_FRAME":"TEME","PERIOD":"95.919","RCS_SIZE":"LARGE","PERIAPSIS":"562.544","TLE_LINE1":"1 53488U 22099Z   23128.92019476  .00001319  00000-0  10723-3 0  9994","GP_ID":"231476057","DECAY_DATE":null,"APOAPSIS":"563.485","ARG_OF_PERICENTER":"136.6534","SITE":"AFWTR","MEAN_MOTION":"15.01259079","NORAD_CAT_ID":"53488","REV_AT_EPOCH":"4058","OBJECT_ID":"2022-099Z"},{"OBJECT_TYPE":"PAYLOAD","INCLINATION":"97.6532","EPOCH":"2023-05-08T21:54:24.527232","SEMIMAJOR_AXIS":"6941.134","CLASSIFICATION_TYPE":"U","COUNTRY_CODE":"US","EPHEMERIS_TYPE":"0","CENTER_NAME":"EARTH","FILE":"3904305","MEAN_MOTION_DOT":"-0.00000300","LAUNCH_DATE":"2022-08-12","MEAN_ELEMENT_THEORY":"SGP4","TIME_SYSTEM":"UTC","ELEMENT_SET_NO":"999","MEAN_ANOMALY":"116.9712","TLE_LINE2":"2 53489  97.6532 250.5470 0000861 243.1424 116.9712 15.01264292 40587","SITE":"AFWTR","ARG_OF_PERICENTER":"243.1424","NORAD_CAT_ID":"53489","MEAN_MOTION":"15.01264292","REV_AT_EPOCH":"4058","OBJECT_ID":"2022-099AA","RCS_SIZE":"LARGE","PERIOD":"95.919","REF_FRAME":"TEME","GP_ID":"231475804","TLE_LINE1":"1 53489U 22099AA  23128.91278388 -.00000300  00000-0 -18764-4 0  9998","PERIAPSIS":"562.401","DECAY_DATE":null,"APOAPSIS":"563.596","MEAN_MOTION_DDOT":"0.0000000000000","RA_OF_ASC_NODE":"250.5470","OBJECT_NAME":"STARLINK-4392","BSTAR":"-0.00001876400000","ECCENTRICITY":"0.00008610"},{"NORAD_CAT_ID":"53490","MEAN_MOTION":"15.01260319","ARG_OF_PERICENTER":"229.0496","SITE":"AFWTR","OBJECT_ID":"2022-099AB","REV_AT_EPOCH":"4058","TLE_LINE1":"1 53490U 22099AB  23128.91648933 -.00000314  00000-0 -19834-4 0  9991","PERIAPSIS":"562.466","GP_ID":"231474556","PERIOD":"95.919","RCS_SIZE":"LARGE","REF_FRAME":"TEME","APOAPSIS":"563.556","DECAY_DATE":null,"MEAN_MOTION_DDOT":"0.0000000000000","RA_OF_ASC_NODE":"250.5525","OBJECT_NAME":"STARLINK-4387","ECCENTRICITY":"0.00007850","BSTAR":"-0.00001983400000","OBJECT_TYPE":"PAYLOAD","EPOCH":"2023-05-08T21:59:44.678112","INCLINATION":"97.6536","CLASSIFICATION_TYPE":"U","COUNTRY_CODE":"US","SEMIMAJOR_AXIS":"6941.146","CENTER_NAME":"EARTH","EPHEMERIS_TYPE":"0","MEAN_MOTION_DOT":"-0.00000314","FILE":"3904305","ELEMENT_SET_NO":"999","LAUNCH_DATE":"2022-08-12","TIME_SYSTEM":"UTC","MEAN_ELEMENT_THEORY":"SGP4","MEAN_ANOMALY":"131.0660","TLE_LINE2":"2 53490  97.6536 250.5525 0000785 229.0496 131.0660 15.01260319 40587"},{"EPHEMERIS_TYPE":"0","CENTER_NAME":"EARTH","SEMIMAJOR_AXIS":"6941.179","CLASSIFICATION_TYPE":"U","COUNTRY_CODE":"US","EPOCH":"2023-05-08T21:49:04.257984","INCLINATION":"97.6536","OBJECT_TYPE":"PAYLOAD","TLE_LINE2":"2 53491  97.6536 250.5416 0003773 235.9659 124.1207 15.01249700 40585","LAUNCH_DATE":"2022-08-12","TIME_SYSTEM":"UTC","ELEMENT_SET_NO":"999","MEAN_ANOMALY":"124.1207","MEAN_ELEMENT_THEORY":"SGP4","FILE":"3904305","MEAN_MOTION_DOT":"0.00002643","DECAY_DATE":null,"APOAPSIS":"565.663","PERIOD":"95.920","RCS_SIZE":"LARGE","REF_FRAME":"TEME","TLE_LINE1":"1 53491U 22099AC  23128.90907706  .00002643  00000-0  21034-3 0  9996","PERIAPSIS":"560.425","GP_ID":"231474801","REV_AT_EPOCH":"4058","OBJECT_ID":"2022-099AC","SITE":"AFWTR","ARG_OF_PERICENTER":"235.9659","NORAD_CAT_ID":"53491","MEAN_MOTION":"15.01249700","BSTAR":"0.00021034000000","ECCENTRICITY":"0.00037730","OBJECT_NAME":"STARLINK-4450","RA_OF_ASC_NODE":"250.5416","MEAN_MOTION_DDOT":"0.0000000000000"}];
